{"version": 0.6, "generator": "Overpass API 0.7.59.4 36d058c8", "osm3s": {"timestamp_osm_base": "2023-03-12T20:23:51Z", "copyright": "The data included in this document is from www.openstreetmap.org. The data is made available under ODbL."}, "elements": [{"type": "node", "id": 29680667, "lat": 53.3731141, "lon": 13.0811878}, {"type": "node", "id": 29680668, "lat": 53.3742957, "lon": 13.079486}, {"type": "node", "id": 29680669, "lat": 53.3747252, "lon": 13.0791585}, {"type": "node", "id": 29680670, "lat": 53.3757227, "lon": 13.0788354}, {"type": "node", "id": 29680671, "lat": 53.3765472, "lon": 13.0789519}, {"type": "node", "id": 29680672, "lat": 53.3774118, "lon": 13.079501}, {"type": "node", "id": 29680673, "lat": 53.3782095, "lon": 13.0803319}, {"type": "node", "id": 29680674, "lat": 53.3811647, "lon": 13.0839457}, {"type": "node", "id": 29680675, "lat": 53.3726404, "lon": 13.0833947}, {"type": "node", "id": 29680676, "lat": 53.373039, "lon": 13.082912}, {"type": "node", "id": 29680677, "lat": 53.3738162, "lon": 13.0823993}, {"type": "node", "id": 29680678, "lat": 53.3744891, "lon": 13.0818056}, {"type": "node", "id": 29680679, "lat": 53.3746555, "lon": 13.0811433}, {"type": "node", "id": 29680680, "lat": 53.3746472, "lon": 13.0807046}, {"type": "node", "id": 29680683, "lat": 53.3742423, "lon": 13.0774923}, {"type": "node", "id": 29680684, "lat": 53.3741907, "lon": 13.0767352}, {"type": "node", "id": 29680685, "lat": 53.374169, "lon": 13.0762848}, {"type": "node", "id": 29680688, "lat": 53.3740953, "lon": 13.0757999}, {"type": "node", "id": 29680689, "lat": 53.3741033, "lon": 13.0767589}, {"type": "node", "id": 29680690, "lat": 53.3741543, "lon": 13.0776731}, {"type": "node", "id": 29680691, "lat": 53.3741486, "lon": 13.0783077}, {"type": "node", "id": 29680692, "lat": 53.373917, "lon": 13.0794697}, {"type": "node", "id": 29680693, "lat": 53.3775049, "lon": 13.0794196}, {"type": "node", "id": 29680694, "lat": 53.3763113, "lon": 13.0779899}, {"type": "node", "id": 29680695, "lat": 53.3755902, "lon": 13.0768907}, {"type": "node", "id": 29680696, "lat": 53.3751161, "lon": 13.0755331}, {"type": "node", "id": 29680697, "lat": 53.3748831, "lon": 13.0751277}, {"type": "node", "id": 29680698, "lat": 53.3745548, "lon": 13.074814}, {"type": "node", "id": 29680699, "lat": 53.3742627, "lon": 13.0746282}, {"type": "node", "id": 29680701, "lat": 53.3740952, "lon": 13.0761548}, {"type": "node", "id": 29680702, "lat": 53.3741996, "lon": 13.0772358}, {"type": "node", "id": 29680703, "lat": 53.374282, "lon": 13.0778371}, {"type": "node", "id": 29680705, "lat": 53.3745811, "lon": 13.080165}, {"type": "node", "id": 29680706, "lat": 53.3745966, "lon": 13.0807222}, {"type": "node", "id": 29680707, "lat": 53.3743493, "lon": 13.0812428}, {"type": "node", "id": 29680708, "lat": 53.3739517, "lon": 13.0812616}, {"type": "node", "id": 29680709, "lat": 53.3737529, "lon": 13.0808809}, {"type": "node", "id": 29680710, "lat": 53.3737233, "lon": 13.0804827}, {"type": "node", "id": 29680711, "lat": 53.3738195, "lon": 13.080133}, {"type": "node", "id": 29680712, "lat": 53.3864861, "lon": 13.0904678}, {"type": "node", "id": 29680713, "lat": 53.386969, "lon": 13.0910661}, {"type": "node", "id": 108379449, "lat": 53.3740166, "lon": 13.0748148, "tags": {"highway": "traffic_signals"}}, {"type": "node", "id": 113714222, "lat": 53.3746401, "lon": 13.0728653}, {"type": "node", "id": 252121031, "lat": 53.3745394, "lon": 13.0809825}, {"type": "node", "id": 252121032, "lat": 53.3740996, "lon": 13.0813199}, {"type": "node", "id": 252121033, "lat": 53.3738449, "lon": 13.0811304}, {"type": "node", "id": 252127142, "lat": 53.3733993, "lon": 13.0746727}, {"type": "node", "id": 252127143, "lat": 53.3760801, "lon": 13.0788394}, {"type": "node", "id": 252127144, "lat": 53.3769909, "lon": 13.0791751}, {"type": "node", "id": 252127145, "lat": 53.3751232, "lon": 13.0789656}, {"type": "node", "id": 252127146, "lat": 53.3740542, "lon": 13.079018}, {"type": "node", "id": 301467709, "lat": 53.3758278, "lon": 13.0773686}, {"type": "node", "id": 301467710, "lat": 53.3746431, "lon": 13.0748758}, {"type": "node", "id": 301467736, "lat": 53.3741336, "lon": 13.0749948}, {"type": "node", "id": 301467739, "lat": 53.3735728, "lon": 13.0747503}, {"type": "node", "id": 301467740, "lat": 53.3742794, "lon": 13.0745192}, {"type": "node", "id": 301467741, "lat": 53.3743747, "lon": 13.0739418}, {"type": "node", "id": 301467743, "lat": 53.3743333, "lon": 13.07467, "tags": {"highway": "traffic_signals"}}, {"type": "node", "id": 301467744, "lat": 53.3740035, "lon": 13.0746412}, {"type": "node", "id": 301467747, "lat": 53.3738019, "lon": 13.0746402}, {"type": "node", "id": 301467750, "lat": 53.3735459, "lon": 13.0746032}, {"type": "node", "id": 301467752, "lat": 53.3733532, "lon": 13.0745359}, {"type": "node", "id": 301467754, "lat": 53.3728717, "lon": 13.0741902}, {"type": "node", "id": 301467764, "lat": 53.3744063, "lon": 13.0734572}, {"type": "node", "id": 301467765, "lat": 53.3741083, "lon": 13.0744862, "tags": {"highway": "traffic_signals"}}, {"type": "node", "id": 301467774, "lat": 53.37423, "lon": 13.074845}, {"type": "node", "id": 301467779, "lat": 53.3741972, "lon": 13.0745028, "tags": {"highway": "traffic_signals"}}, {"type": "node", "id": 301467782, "lat": 53.3742743, "lon": 13.0737904}, {"type": "node", "id": 365038763, "lat": 53.3741761, "lon": 13.0746327}, {"type": "node", "id": 418044168, "lat": 53.3748376, "lon": 13.0723928}, {"type": "node", "id": 418044177, "lat": 53.3741799, "lon": 13.0821638}, {"type": "node", "id": 418044178, "lat": 53.3734179, "lon": 13.0826068}, {"type": "node", "id": 492658711, "lat": 53.3745821, "lon": 13.0815695}, {"type": "node", "id": 492658714, "lat": 53.374354, "lon": 13.0819905}, {"type": "node", "id": 492658732, "lat": 53.3741258, "lon": 13.0751344}, {"type": "node", "id": 941522650, "lat": 53.3762636, "lon": 13.0779345}, {"type": "node", "id": 1128033440, "lat": 53.3856578, "lon": 13.089487}, {"type": "node", "id": 1330681122, "lat": 53.3724277, "lon": 13.0838504}, {"type": "node", "id": 1330681129, "lat": 53.3728316, "lon": 13.0831221}, {"type": "node", "id": 1330681139, "lat": 53.3739122, "lon": 13.0798785}, {"type": "node", "id": 2130338574, "lat": 53.3731592, "lon": 13.0744437}, {"type": "node", "id": 2130338575, "lat": 53.3731274, "lon": 13.0810583}, {"type": "node", "id": 2130338576, "lat": 53.373504, "lon": 13.0804639}, {"type": "node", "id": 2130338577, "lat": 53.3737182, "lon": 13.0807055}, {"type": "node", "id": 2130338578, "lat": 53.3737189, "lon": 13.0747842}, {"type": "node", "id": 2130338579, "lat": 53.3737583, "lon": 13.0803053}, {"type": "node", "id": 2130338580, "lat": 53.3737666, "lon": 13.0798016}, {"type": "node", "id": 2130338581, "lat": 53.3737053, "lon": 13.0801551}, {"type": "node", "id": 2130338582, "lat": 53.3739207, "lon": 13.0799578}, {"type": "node", "id": 2130338583, "lat": 53.3740176, "lon": 13.0791747}, {"type": "node", "id": 2130338585, "lat": 53.3740561, "lon": 13.0748199}, {"type": "node", "id": 2130338586, "lat": 53.3740814, "lon": 13.0745341}, {"type": "node", "id": 2130338591, "lat": 53.3740968, "lon": 13.0788033}, {"type": "node", "id": 2130338592, "lat": 53.3741597, "lon": 13.075901}, {"type": "node", "id": 2130338594, "lat": 53.3741703, "lon": 13.0754214}, {"type": "node", "id": 2130338595, "lat": 53.3741727, "lon": 13.0796135}, {"type": "node", "id": 2130338597, "lat": 53.3742088, "lon": 13.0770162}, {"type": "node", "id": 2130338599, "lat": 53.3742326, "lon": 13.0813053}, {"type": "node", "id": 2130338601, "lat": 53.3741417, "lon": 13.0797065}, {"type": "node", "id": 2130338604, "lat": 53.3744425, "lon": 13.0811658}, {"type": "node", "id": 2130338605, "lat": 53.3744917, "lon": 13.0731989}, {"type": "node", "id": 2130338606, "lat": 53.3744929, "lon": 13.0734}, {"type": "node", "id": 2130338610, "lat": 53.3754485, "lon": 13.076509}, {"type": "node", "id": 2130338611, "lat": 53.3754986, "lon": 13.0788582}, {"type": "node", "id": 2130338612, "lat": 53.3768939, "lon": 13.0791143}, {"type": "node", "id": 2130338613, "lat": 53.3770466, "lon": 13.0788761}, {"type": "node", "id": 2130338618, "lat": 53.3788179, "lon": 13.0810639}, {"type": "node", "id": 2130338619, "lat": 53.3790052, "lon": 13.0812913}, {"type": "node", "id": 2130338620, "lat": 53.3794885, "lon": 13.0818967}, {"type": "node", "id": 2130338621, "lat": 53.3803537, "lon": 13.0829536}, {"type": "node", "id": 2130338622, "lat": 53.3819496, "lon": 13.0849238}, {"type": "node", "id": 2130338623, "lat": 53.3825278, "lon": 13.0856325}, {"type": "node", "id": 2130338624, "lat": 53.383369, "lon": 13.0866596}, {"type": "node", "id": 2130338625, "lat": 53.3839866, "lon": 13.0874289}, {"type": "node", "id": 2130338627, "lat": 53.386117, "lon": 13.0900294}, {"type": "node", "id": 2193087546, "lat": 53.3776425, "lon": 13.0797035}, {"type": "node", "id": 2193087547, "lat": 53.3777249, "lon": 13.0796877}, {"type": "node", "id": 2351929219, "lat": 53.3778161, "lon": 13.0798929}, {"type": "node", "id": 2414949459, "lat": 53.3732533, "lon": 13.080906}, {"type": "node", "id": 2414949460, "lat": 53.3738462, "lon": 13.079638}, {"type": "node", "id": 2414949461, "lat": 53.3741272, "lon": 13.0785841}, {"type": "node", "id": 2414949465, "lat": 53.3753064, "lon": 13.078904}, {"type": "node", "id": 2419353984, "lat": 53.3723604, "lon": 13.0840101}, {"type": "node", "id": 2419353987, "lat": 53.3745399, "lon": 13.0792755}, {"type": "node", "id": 2419353990, "lat": 53.3749048, "lon": 13.0790591}, {"type": "node", "id": 2419353991, "lat": 53.3772111, "lon": 13.0793317}, {"type": "node", "id": 2419353992, "lat": 53.3791598, "lon": 13.081485}, {"type": "node", "id": 3175889905, "lat": 53.3735304, "lon": 13.0747313}, {"type": "node", "id": 3211232208, "lat": 53.3725169, "lon": 13.0831649}, {"type": "node", "id": 3211232209, "lat": 53.3726768, "lon": 13.0825447}, {"type": "node", "id": 3211232210, "lat": 53.3728788, "lon": 13.0818548}, {"type": "node", "id": 3321710739, "lat": 53.3730587, "lon": 13.0813123}, {"type": "node", "id": 3491720519, "lat": 53.3741511, "lon": 13.074383}, {"type": "node", "id": 3491720520, "lat": 53.3741924, "lon": 13.0742157}, {"type": "node", "id": 3491720521, "lat": 53.3742909, "lon": 13.0739619}, {"type": "node", "id": 3491720522, "lat": 53.374326, "lon": 13.0736215}, {"type": "node", "id": 3495617878, "lat": 53.3744567, "lon": 13.073566}, {"type": "node", "id": 3525956411, "lat": 53.3740931, "lon": 13.0746367}, {"type": "node", "id": 3525956412, "lat": 53.37415, "lon": 13.0748331}, {"type": "node", "id": 3525956415, "lat": 53.3741888, "lon": 13.0751413}, {"type": "node", "id": 3525956421, "lat": 53.3741615, "lon": 13.0747296}, {"type": "node", "id": 3655684961, "lat": 53.3743747, "lon": 13.075617}, {"type": "node", "id": 3655684962, "lat": 53.3746112, "lon": 13.0758815}, {"type": "node", "id": 3901649111, "lat": 53.3747655, "lon": 13.0749929}, {"type": "node", "id": 3901649112, "lat": 53.3750006, "lon": 13.0753067}, {"type": "node", "id": 3901649113, "lat": 53.3752578, "lon": 13.075905}, {"type": "node", "id": 3901649114, "lat": 53.3753556, "lon": 13.0761968}, {"type": "node", "id": 3901649115, "lat": 53.3755199, "lon": 13.0767115}, {"type": "node", "id": 4078661128, "lat": 53.3746327, "lon": 13.0813609}, {"type": "node", "id": 4193565966, "lat": 53.3741836, "lon": 13.0751955, "tags": {"highway": "traffic_signals"}}, {"type": "node", "id": 4193657601, "lat": 53.3741303, "lon": 13.0772425}, {"type": "node", "id": 4270094781, "lat": 53.3741616, "lon": 13.0756581}, {"type": "node", "id": 4270094782, "lat": 53.3741821, "lon": 13.0765555}, {"type": "node", "id": 8199791290, "lat": 53.377271, "lon": 13.0791422}, {"type": "way", "id": 4673612, "nodes": [8199791290, 2130338613, 29680694, 941522650, 301467709], "tags": {"highway": "primary_link", "maxspeed": "60", "oneway": "yes", "ref": "B 96", "source:maxspeed": "DE:sign", "surface": "asphalt"}}, {"type": "way", "id": 22575460, "nodes": [29680712, 29680713], "tags": {"bridge": "yes", "highway": "primary", "int_ref": "E 251", "lanes": "2", "layer": "1", "maxspeed": "100", "ref": "B 96", "source:maxspeed": "DE:rural", "surface": "asphalt"}}, {"type": "way", "id": 23291642, "nodes": [29680668, 2419353987, 29680669], "tags": {"bridge": "yes", "highway": "primary", "int_ref": "E 251", "lanes": "3", "lanes:backward": "1", "lanes:forward": "2", "layer": "1", "maxspeed": "70", "ref": "B 96", "surface": "asphalt", "turn:lanes:forward": "none|merge_to_left"}}, {"type": "way", "id": 23291643, "nodes": [29680669, 2419353990, 252127145], "tags": {"highway": "primary", "int_ref": "E 251", "lanes": "3", "lanes:backward": "1", "lanes:forward": "2", "maxspeed": "70", "ref": "B 96", "surface": "asphalt", "turn:lanes:forward": "none|merge_to_left"}}, {"type": "way", "id": 23292293, "nodes": [252127144, 2419353991, 29680672, 2193087546, 2351929219, 29680673], "tags": {"highway": "primary", "int_ref": "E 251", "lanes": "2", "maxspeed:backward": "70", "maxspeed:forward": "100", "ref": "B 96", "source:maxspeed": "DE:rural", "surface": "asphalt"}}, {"type": "way", "id": 27456795, "nodes": [301467744, 301467747, 301467750, 301467752, 2130338574, 301467754], "tags": {"highway": "residential", "maxspeed": "50", "name": "Hohenzieritzer Stra\u00dfe", "oneway": "yes", "source:maxspeed": "DE:sign", "surface": "asphalt"}}, {"type": "way", "id": 27456797, "nodes": [252127142, 3175889905], "tags": {"highway": "residential", "lanes": "2", "maxspeed": "50", "maxspeed:type": "sign", "name": "Hohenzieritzer Stra\u00dfe", "oneway": "yes", "surface": "asphalt", "turn:lanes": "left|right"}}, {"type": "way", "id": 27456798, "nodes": [301467764, 3491720522, 301467782, 3491720520, 3491720519, 301467765], "tags": {"highway": "primary_link", "maxspeed": "70", "oneway": "yes", "source:maxspeed": "DE:sign", "surface": "asphalt", "turn:lanes": "right"}}, {"type": "way", "id": 30050059, "nodes": [113714222, 2130338605, 301467764], "tags": {"highway": "primary", "lanes": "2", "maxspeed": "50", "oneway": "yes", "ref": "B 193", "surface": "asphalt", "turn:lanes": "through|right"}}, {"type": "way", "id": 40584195, "nodes": [29680701, 29680702, 29680683], "tags": {"highway": "primary_link", "lanes": "1", "maxspeed": "60", "oneway": "yes", "ref": "B 96", "surface": "asphalt"}}, {"type": "way", "id": 60355711, "nodes": [29680673, 2130338618], "tags": {"highway": "primary", "int_ref": "E 251", "lanes": "2", "maxspeed:backward": "70", "maxspeed:forward": "100", "ref": "B 96", "source:maxspeed": "DE:rural", "surface": "asphalt"}}, {"type": "way", "id": 60355713, "nodes": [29680667, 2414949459, 2130338576, 2130338581, 1330681139, 2130338595], "tags": {"highway": "primary", "int_ref": "E 251", "lanes": "2", "maxspeed": "70", "ref": "B 96", "surface": "asphalt"}}, {"type": "way", "id": 127399641, "nodes": [3525956412, 301467736, 492658732], "tags": {"highway": "primary_link", "lanes": "2", "maxspeed": "50", "oneway": "yes", "ref": "B 96", "surface": "asphalt"}}, {"type": "way", "id": 127399665, "nodes": [3525956412, 301467774], "tags": {"highway": "primary_link", "lanes": "1", "oneway": "yes", "surface": "asphalt"}}, {"type": "way", "id": 127399682, "nodes": [365038763, 3525956411, 301467744], "tags": {"destination": "Neustrelitz", "highway": "primary_link", "maxspeed": "60", "oneway": "yes", "source:maxspeed": "DE:sign", "surface": "asphalt"}}, {"type": "way", "id": 127399683, "nodes": [29680699, 365038763], "tags": {"highway": "primary_link", "lanes": "1", "maxspeed": "60", "oneway": "yes", "source:maxspeed": "DE:sign", "surface": "asphalt"}}, {"type": "way", "id": 130219444, "nodes": [29680699, 301467740, 301467741], "tags": {"destination": "Waren (M\u00fcritz);Penzlin", "highway": "primary", "lanes": "1", "maxspeed": "60", "oneway": "yes", "ref": "B 193", "surface": "asphalt"}}, {"type": "way", "id": 203055381, "nodes": [3525956415, 301467774], "tags": {"highway": "primary_link", "maxspeed": "60", "oneway": "yes", "ref": "B 96", "surface": "asphalt"}}, {"type": "way", "id": 203055382, "nodes": [29680683, 2130338597, 29680684, 4270094782], "tags": {"highway": "primary_link", "lanes": "1", "maxspeed": "60", "oneway": "yes", "ref": "B 96", "surface": "asphalt"}}, {"type": "way", "id": 203055383, "nodes": [29680685, 2130338592, 4270094781, 2130338594, 4193565966], "tags": {"highway": "primary_link", "lanes": "2", "maxspeed": "60", "oneway": "yes", "ref": "B 96", "surface": "asphalt", "turn:lanes": "left|through"}}, {"type": "way", "id": 203055384, "nodes": [4193657601, 29680690, 29680691, 2414949461, 2130338591, 252127146], "tags": {"highway": "primary_link", "lanes": "1", "maxspeed": "70", "oneway": "yes", "ref": "B 96", "smoothness": "excellent", "surface": "asphalt"}}, {"type": "way", "id": 203055387, "nodes": [29680705, 29680706, 252121031, 2130338604, 29680707, 2130338599, 252121032, 29680708, 252121033, 29680709, 2130338577, 29680710, 2130338579, 29680711, 2130338582, 2130338601], "tags": {"highway": "primary_link", "lanes": "1", "maxspeed": "40", "oneway": "yes", "ref": "B 96", "surface": "asphalt"}}, {"type": "way", "id": 203055391, "nodes": [29680683, 29680703, 29680705], "tags": {"highway": "primary_link", "lanes": "2", "maxspeed": "60", "ref": "B 96", "surface": "asphalt"}}, {"type": "way", "id": 203055395, "nodes": [29680697, 3901649111, 301467710, 29680698, 301467743], "tags": {"highway": "primary_link", "lanes": "2", "maxspeed": "60", "oneway": "yes", "ref": "B 96", "source:maxspeed": "DE:sign", "surface": "asphalt", "turn:lanes": "through|right"}}, {"type": "way", "id": 233154169, "nodes": [252127146, 2130338583, 29680692, 2414949460, 2130338580, 2130338575, 29680667], "tags": {"highway": "primary_link", "lanes": "1", "maxspeed": "70", "oneway": "yes", "ref": "B 96", "surface": "asphalt"}}, {"type": "way", "id": 233569331, "nodes": [2419353992, 2130338620, 2130338621, 29680674, 2130338622, 2130338623, 2130338624, 2130338625, 1128033440], "tags": {"highway": "primary", "int_ref": "E 251", "lanes": "2", "maxspeed": "100", "ref": "B 96", "source:maxspeed": "DE:rural", "surface": "asphalt"}}, {"type": "way", "id": 233569373, "nodes": [2419353984, 1330681122, 29680675, 1330681129, 29680676, 418044178, 29680677, 418044177, 492658714, 29680678, 492658711, 4078661128, 29680679, 29680680, 29680705], "tags": {"highway": "primary_link", "lanes": "1", "maxspeed": "60", "oneway": "yes", "ref": "B 96", "surface": "asphalt"}}, {"type": "way", "id": 257150788, "nodes": [2130338601, 2130338595], "tags": {"highway": "primary_link", "lanes": "1", "maxspeed": "70", "oneway": "yes", "ref": "B 96", "surface": "asphalt"}}, {"type": "way", "id": 311849723, "nodes": [3175889905, 301467739, 2130338578, 108379449], "tags": {"highway": "residential", "lanes": "3", "maxspeed": "50", "maxspeed:type": "sign", "name": "Hohenzieritzer Stra\u00dfe", "oneway": "yes", "surface": "asphalt", "turn:lanes": "left|right|right"}}, {"type": "way", "id": 315039646, "nodes": [3211232208, 3211232209, 3211232210, 3321710739, 29680667], "tags": {"cycleway:left": "separate", "cycleway:right": "no", "highway": "primary", "int_ref": "E 251", "lanes": "3", "lanes:backward": "2", "lanes:forward": "1", "maxspeed": "70", "ref": "B 96", "surface": "asphalt", "turn:lanes:backward": "none|merge_to_left"}}, {"type": "way", "id": 315039647, "nodes": [252127145, 2414949465, 2130338611, 29680670, 252127143, 29680671, 2130338612, 252127144], "tags": {"highway": "primary", "int_ref": "E 251", "lanes": "2", "maxspeed": "70", "ref": "B 96", "surface": "asphalt"}}, {"type": "way", "id": 342592818, "nodes": [3495617878, 2130338606, 113714222], "tags": {"highway": "primary", "lanes": "1", "maxspeed": "100", "oneway": "yes", "ref": "B 193", "surface": "asphalt"}}, {"type": "way", "id": 351911291, "nodes": [365038763, 3525956421, 3525956412], "tags": {"highway": "primary", "lanes": "2", "maxspeed": "50", "oneway": "yes", "ref": "B 96"}}, {"type": "way", "id": 361042954, "nodes": [301467709, 29680695, 3901649115, 2130338610, 3901649114, 3901649113, 29680696, 3901649112, 29680697], "tags": {"highway": "primary_link", "maxspeed": "60", "oneway": "yes", "ref": "B 96", "source:maxspeed": "DE:sign", "surface": "asphalt"}}, {"type": "way", "id": 361042960, "nodes": [301467754, 3655684961, 3655684962, 301467709], "tags": {"highway": "razed", "old_ref": "B 96"}}, {"type": "way", "id": 386817500, "nodes": [301467779, 365038763], "tags": {"highway": "primary", "lanes": "2", "maxspeed": "50", "oneway": "yes", "ref": "B 193", "surface": "asphalt"}}, {"type": "way", "id": 386817501, "nodes": [418044168, 113714222], "tags": {"highway": "primary", "lanes": "3", "maxspeed:backward": "100", "maxspeed:forward": "70", "ref": "B 193", "surface": "asphalt", "turn:lanes:forward": "through|right"}}, {"type": "way", "id": 386817502, "nodes": [301467764, 3491720521, 301467779], "tags": {"highway": "primary", "lanes": "2", "maxspeed": "50", "oneway": "yes", "ref": "B 193", "surface": "asphalt", "turn:lanes": "through|right"}}, {"type": "way", "id": 386817503, "nodes": [301467743, 29680699], "tags": {"highway": "primary_link", "lanes": "2", "maxspeed": "60", "oneway": "yes", "ref": "B 96", "source:maxspeed": "DE:sign", "surface": "asphalt"}}, {"type": "way", "id": 386817504, "nodes": [301467765, 2130338586, 301467744], "tags": {"highway": "primary_link", "maxspeed": "70", "oneway": "yes", "source:maxspeed": "DE:sign", "surface": "asphalt"}}, {"type": "way", "id": 388865303, "nodes": [2130338618, 2130338619, 2419353992], "tags": {"highway": "primary", "int_ref": "E 251", "lanes": "2", "maxspeed:backward": "70", "maxspeed:forward": "100", "old_ref": "B 96", "ref": "B 96", "source:maxspeed": "DE:rural", "surface": "asphalt"}}, {"type": "way", "id": 388865374, "nodes": [492658732, 29680688, 29680701], "tags": {"highway": "primary_link", "lanes": "2", "maxspeed": "60", "oneway": "yes", "ref": "B 96", "smoothness": "excellent", "surface": "asphalt", "turn:lanes": "left|right"}}, {"type": "way", "id": 405708689, "nodes": [2130338595, 29680668], "tags": {"highway": "primary", "int_ref": "E 251", "lanes": "2", "maxspeed": "70", "ref": "B 96", "surface": "asphalt"}}, {"type": "way", "id": 419257844, "nodes": [29680701, 29680689, 4193657601], "tags": {"highway": "primary_link", "lanes": "1", "maxspeed": "60", "oneway": "yes", "ref": "B 96", "source:maxspeed": "DE:sign", "surface": "asphalt"}}, {"type": "way", "id": 427835710, "nodes": [301467774, 29680699], "tags": {"highway": "primary_link", "lanes": "1", "maxspeed": "60", "oneway": "yes", "ref": "B 96", "surface": "asphalt"}}, {"type": "way", "id": 427835711, "nodes": [4270094782, 29680685], "tags": {"highway": "primary_link", "lanes": "1", "maxspeed": "60", "oneway": "yes", "ref": "B 96", "surface": "asphalt", "turn:lanes": "through;left"}}, {"type": "way", "id": 427835712, "nodes": [108379449, 2130338585, 3525956412], "tags": {"highway": "residential", "lanes": "3", "maxspeed": "50", "maxspeed:type": "sign", "name": "Hohenzieritzer Stra\u00dfe", "oneway": "yes", "surface": "asphalt"}}, {"type": "way", "id": 427836148, "nodes": [301467741, 3495617878], "tags": {"highway": "primary", "lanes": "1", "maxspeed": "100", "oneway": "yes", "ref": "B 193", "surface": "asphalt"}}, {"type": "way", "id": 427836149, "nodes": [4193565966, 3525956415], "tags": {"highway": "primary_link", "lanes": "2", "maxspeed": "60", "oneway": "yes", "ref": "B 96", "surface": "asphalt"}}, {"type": "way", "id": 558587590, "nodes": [1128033440, 2130338627, 29680712], "tags": {"embankment": "yes", "highway": "primary", "int_ref": "E 251", "lanes": "2", "maxspeed": "100", "old_ref": "B 96", "ref": "B 96", "source:maxspeed": "DE:rural", "surface": "asphalt"}}, {"type": "way", "id": 881718116, "nodes": [29680673, 2193087547, 29680693, 8199791290], "tags": {"highway": "primary_link", "maxspeed": "70", "oneway": "yes", "ref": "B 96", "source:maxspeed": "DE:sign", "surface": "asphalt"}}]}