{"version": 0.6, "generator": "Overpass API 0.7.59.2 0994154d", "osm3s": {"timestamp_osm_base": "2023-03-09T19:46:24Z", "copyright": "The data included in this document is from www.openstreetmap.org. The data is made available under ODbL."}, "elements": [{"type": "node", "id": 639309274, "lat": 50.0034054, "lon": 10.1188005, "tags": {"TMC:cid_58:tabcd_1:Class": "Point", "TMC:cid_58:tabcd_1:LCLversion": "9.00", "TMC:cid_58:tabcd_1:LocationCode": "60846", "addr:city": "Werneck", "addr:country": "DE", "addr:housenumber": "1", "addr:postcode": "97440", "addr:street": "Am Eschenbach", "atmotorway": "no", "highway": "services", "name": "Autohof Werneck", "operator": "Total"}}, {"type": "node", "id": 1654355489, "lat": 49.9818007, "lon": 10.5551951, "tags": {"addr:city": "Knetzgau", "addr:country": "DE", "addr:housenumber": "12", "addr:postcode": "97478", "addr:street": "Steinbruch", "amenity": "fuel", "brand": "Shell", "fax": "+49 9527 7719", "highway": "services", "name": "Eurorast Knetzgau", "phone": "+49 9527 8011"}}]}